NORAD_CAT_ID,OBJECT_NAME,OBJECT_TYPE,EPOCH,MEAN_MOTION,ECCENTRICITY,INCLINATION,RA_OF_ASC_NODE,ARG_OF_PERICENTER,MEAN_ANOMALY,BSTAR,MEAN_MOTION_DOT,MEAN_MOTION_DDOT,TLE_LINE0,TLE_LINE1,TLE_LINE2,SEMIMAJOR_AXIS,PERIOD,APOGEE,PERIGEE,DECAYED
53861.0,STARLINK-4781,PAYLOAD,2024-05-25 18:54:17,15.08826629,0.0001436,53.216,335.2719,91.2623,268.8534,-5.1649e-05,-1.11e-05,0.0,0 STARLINK-4781,1 53861U 22114AV  24146.78770675 -.00001110  00000-0 -51649-4 0  9991,2 53861  53.2160 335.2719 0001436  91.2623 268.8534 15.08826629 94544,6917.921,95.438,540.78,538.793,0.0
53861.0,STARLINK-4781,PAYLOAD,2024-05-26 18:45:05,15.08848892,0.0001567,53.2169,330.811,87.3105,272.8067,0.00079917,0.00012457,0.0,0 STARLINK-4781,1 53861U 22114AV  24147.78130988  .00012457  00000-0  79917-3 0  9990,2 53861  53.2169 330.8110 0001567  87.3105 272.8067 15.08848892 94154,6917.853,95.437,540.802,538.634,0.0
53861.0,STARLINK-4781,PAYLOAD,2024-05-26 21:55:51,15.08852929,0.0001535,53.2176,330.2153,89.565,270.5518,0.00079049,0.00012319,0.0,0 STARLINK-4781,1 53861U 22114AV  24147.91378856  .00012319  00000-0  79049-3 0  9996,2 53861  53.2176 330.2153 0001535  89.5650 270.5518 15.08852929 94711,6917.841,95.437,540.768,538.644,0.0
53861.0,STARLINK-4781,PAYLOAD,2024-05-27 17:00:28,15.08846239,0.0001564,53.2181,326.6423,112.8927,247.223,0.00020929,3.045e-05,0.0,0 STARLINK-4781,1 53861U 22114AV  24148.70866523  .00003045  00000-0  20929-3 0  9996,2 53861  53.2181 326.6423 0001564 112.8927 247.2230 15.08846239 94297,6917.861,95.437,540.808,538.644,0.0
53861.0,STARLINK-4781,PAYLOAD,2024-05-28 12:05:06,15.08848823,0.0001503,53.2179,323.0749,110.3384,249.7769,0.00017205,2.452e-05,0.0,0 STARLINK-4781,1 53861U 22114AV  24149.50354200  .00002452  00000-0  17205-3 0  9993,2 53861  53.2179 323.0749 0001503 110.3384 249.7769 15.08848823 94957,6917.853,95.437,540.758,538.679,0.0
53861.0,STARLINK-4781,PAYLOAD,2024-05-28 18:26:38,15.08849724,0.0001408,53.2179,321.8863,106.9589,253.1557,0.00012134,1.644e-05,0.0,0 STARLINK-4781,1 53861U 22114AV  24149.76849977  .00001644  00000-0  12134-3 0  9999,2 53861  53.2179 321.8863 0001408 106.9589 253.1557 15.08849724 94452,6917.851,95.437,540.69,538.742,0.0
53861.0,STARLINK-4781,PAYLOAD,2024-05-29 11:55:53,15.08845469,0.0001558,53.2189,318.6236,113.3286,246.787,-0.00011445,-2.109e-05,0.0,0 STARLINK-4781,1 53861U 22114AV  24150.49714169 -.00002109  00000-0 -11445-3 0  9998,2 53861  53.2189 318.6236 0001558 113.3286 246.7870 15.08845469 94563,6917.864,95.437,540.806,538.651,0.0
53861.0,STARLINK-4781,PAYLOAD,2024-05-29 16:42:03,15.08829966,0.0001277,53.2175,317.7274,85.1332,274.9806,-0.00012136,-2.218e-05,0.0,0 STARLINK-4781,1 53861U 22114AV  24150.69586928 -.00002218  00000-0 -12136-3 0  9999,2 53861  53.2175 317.7274 0001277  85.1332 274.9806 15.08829966 94595,6917.911,95.438,540.659,538.893,0.0
53861.0,STARLINK-4781,PAYLOAD,2024-05-30 14:57:26,15.08842563,0.00016,53.2181,313.5629,118.4407,241.6747,7.2648e-05,8.68e-06,0.0,0 STARLINK-4781,1 53861U 22114AV  24151.62322469  .00000868  00000-0  72648-4 0  9993,2 53861  53.2181 313.5629 0001600 118.4407 241.6747 15.08842563 95272,6917.873,95.437,540.844,538.631,0.0
53861.0,STARLINK-4781,PAYLOAD,2024-05-30 19:43:35,15.08851797,0.0001361,53.2179,312.6703,100.2126,259.902,0.00024668,3.641e-05,0.0,0 STARLINK-4781,1 53861U 22114AV  24151.82194236  .00003641  00000-0  24668-3 0  9994,2 53861  53.2179 312.6703 0001361 100.2126 259.9020 15.08851797 94761,6917.844,95.437,540.651,538.768,0.0
53861.0,STARLINK-4781,PAYLOAD,2024-05-30 21:18:59,15.088506,0.0001396,53.218,312.3734,106.5428,253.5718,0.00037215,5.641e-05,0.0,0 STARLINK-4781,1 53861U 22114AV  24151.88818396  .00005641  00000-0  37215-3 0  9994,2 53861  53.2180 312.3734 0001396 106.5428 253.5718 15.08850600 95314,6917.848,95.437,540.679,538.747,0.0
53861.0,STARLINK-4781,PAYLOAD,2024-05-31 14:48:13,15.08848727,0.0001407,53.217,309.1024,91.8843,268.231,0.00036642,5.55e-05,0.0,0 STARLINK-4781,1 53861U 22114AV  24152.61682568  .00005550  00000-0  36642-3 0  9998,2 53861  53.2170 309.1024 0001407  91.8843 268.2310 15.08848727 95429,6917.854,95.437,540.692,538.745,0.0
53861.0,STARLINK-4781,PAYLOAD,2024-05-31 19:34:22,15.0885243,0.0001523,53.2181,308.2115,82.8284,277.2881,0.00041656,6.35e-05,0.0,0 STARLINK-4781,1 53861U 22114AV  24152.81554359  .00006350  00000-0  41656-3 0  9996,2 53861  53.2181 308.2115 0001523  82.8284 277.2881 15.08852430 94912,6917.842,95.437,540.761,538.654,0.0
53861.0,STARLINK-4781,PAYLOAD,2024-06-01 14:39:00,15.08828817,0.000164,53.2164,304.6414,101.0852,259.0325,-9.4462e-05,-1.791e-05,0.0,0 STARLINK-4781,1 53861U 22114AV  24153.61042766 -.00001791  00000-0 -94462-4 0  9999,2 53861  53.2164 304.6414 0001640 101.0852 259.0325 15.08828817 95576,6917.915,95.438,540.914,538.645,0.0
53861.0,STARLINK-4781,PAYLOAD,2024-06-01 16:14:24,15.08827177,0.0001301,53.2161,304.3455,93.2747,266.8394,-6.8464e-05,-1.377e-05,0.0,0 STARLINK-4781,1 53861U 22114AV  24153.67666859 -.00001377  00000-0 -68464-4 0  9993,2 53861  53.2161 304.3455 0001301  93.2747 266.8394 15.08827177 95046,6917.92,95.438,540.685,538.885,0.0
53861.0,STARLINK-4781,PAYLOAD,2024-06-02 03:22:06,15.08843682,0.0001391,53.2165,302.2646,90.129,269.9861,0.001026,0.0001608,0.0,0 STARLINK-4781,1 53861U 22114AV  24154.14035093  .00016080  00000-0  10260-2 0  9990,2 53861  53.2165 302.2646 0001391  90.1290 269.9861 15.08843682 95117,6917.869,95.437,540.696,538.772,0.0
53861.0,STARLINK-4781,PAYLOAD,2024-06-02 16:05:11,15.08844533,0.000151,53.2172,299.8856,90.0949,270.0216,0.00077401,0.00012053,0.0,0 STARLINK-4781,1 53861U 22114AV  24154.67027344  .00012053  00000-0  77401-3 0  9995,2 53861  53.2172 299.8856 0001510  90.0949 270.0216 15.08844533 95193,6917.867,95.437,540.776,538.687,0.0
53861.0,STARLINK-4781,PAYLOAD,2024-06-03 03:12:53,15.08853581,0.0001496,53.2171,297.8032,90.1446,269.9718,0.00079732,0.00012429,0.0,0 STARLINK-4781,1 53861U 22114AV  24155.13395096  .00012429  00000-0  79732-3 0  9995,2 53861  53.2171 297.8032 0001496  90.1446 269.9718 15.08853581 95807,6917.839,95.437,540.739,538.669,0.0
53861.0,STARLINK-4781,PAYLOAD,2024-06-03 15:55:58,15.08857786,0.0002366,53.2158,295.4229,91.133,268.9933,0.00098718,0.00015466,0.0,0 STARLINK-4781,1 53861U 22114AV  24155.66387076  .00015466  00000-0  98718-3 0  9991,2 53861  53.2158 295.4229 0002366  91.1330 268.9933 15.08857786 95342,6917.826,95.436,541.328,538.054,0.0
53861.0,STARLINK-4781,PAYLOAD,2024-06-04 09:25:13,15.08847683,7.58e-05,53.2218,292.1538,54.8826,305.2237,0.00081231,0.00012666,0.0,0 STARLINK-4781,1 53861U 22114AV  24156.39251224  .00012666  00000-0  81231-3 0  9998,2 53861  53.2218 292.1538 0000758  54.8826 305.2237 15.08847683 95454,6917.857,95.437,540.246,539.198,0.0
53861.0,STARLINK-4781,PAYLOAD,2024-06-04 12:35:59,15.08834445,0.0001469,53.2138,291.5551,99.2141,260.9017,5.4565e-05,5.8e-06,0.0,0 STARLINK-4781,1 53861U 22114AV  24156.52499092  .00000580  00000-0  54565-4 0  9993,2 53861  53.2138 291.5551 0001469  99.2141 260.9017 15.08834445 95473,6917.897,95.438,540.779,538.746,0.0
53861.0,STARLINK-4781,PAYLOAD,2024-06-05 12:26:46,15.08837041,0.0001343,53.2157,287.0939,110.1142,249.9995,0.00044336,6.775e-05,0.0,0 STARLINK-4781,1 53861U 22114AV  24157.51859717  .00006775  00000-0  44336-3 0  9993,2 53861  53.2157 287.0939 0001343 110.1142 249.9995 15.08837041 96163,6917.889,95.438,540.684,538.825,0.0
53861.0,STARLINK-4781,PAYLOAD,2024-06-05 15:37:33,15.08838411,0.0001088,53.2159,286.5,82.1805,277.931,0.00040436,6.153e-05,0.0,0 STARLINK-4781,1 53861U 22114AV  24157.65107829  .00006153  00000-0  40436-3 0  9995,2 53861  53.2159 286.5000 0001088  82.1805 277.9310 15.08838411 95644,6917.885,95.438,540.503,538.998,0.0
53861.0,STARLINK-4781,PAYLOAD,2024-06-06 01:09:51,15.08856165,3.74e-05,53.217,284.7172,35.0437,325.0579,0.00074555,0.00011603,0.0,0 STARLINK-4781,1 53861U 22114AV  24158.04850866  .00011603  00000-0  74555-3 0  9990,2 53861  53.2170 284.7172 0000374  35.0437 325.0579 15.08856165 95707,6917.831,95.437,539.955,539.437,0.0
53861.0,STARLINK-4781,PAYLOAD,2024-06-06 12:17:34,15.0883142,0.0001127,53.2161,282.6343,64.6589,295.452,-3.6826e-05,-8.74e-06,0.0,0 STARLINK-4781,1 53861U 22114AV  24158.51220089 -.00000874  00000-0 -36826-4 0  9990,2 53861  53.2161 282.6343 0001127  64.6589 295.4520 15.08831420 95777,6917.907,95.438,540.551,538.992,0.0
53861.0,STARLINK-4781,PAYLOAD,2024-06-06 15:28:20,15.08850119,0.000111,53.2168,282.0395,63.8505,296.2601,0.00054673,8.426e-05,0.0,0 STARLINK-4781,1 53861U 22114AV  24158.64467814  .00008426  00000-0  54673-3 0  9991,2 53861  53.2168 282.0395 0001110  63.8505 296.2601 15.08850119 96334,6917.849,95.437,540.482,538.947,0.0
53861.0,STARLINK-4781,PAYLOAD,2024-06-06 18:39:06,15.08848808,0.0001091,53.2181,281.447,72.542,287.5692,0.00048315,7.412e-05,0.0,0 STARLINK-4781,1 53861U 22114AV  24158.77715824  .00007412  00000-0  48315-3 0  9992,2 53861  53.2181 281.4470 0001091  72.5420 287.5692 15.08848808 95814,6917.853,95.437,540.473,538.964,0.0
53861.0,STARLINK-4781,PAYLOAD,2024-06-07 16:54:30,15.08845013,0.0001369,53.2175,277.2834,77.0439,283.0706,0.00024032,3.539e-05,0.0,0 STARLINK-4781,1 53861U 22114AV  24159.70452162  .00003539  00000-0  24032-3 0  9995,2 53861  53.2175 277.2834 0001369  77.0439 283.0706 15.08845013 95959,6917.865,95.437,540.677,538.783,0.0
53861.0,STARLINK-4781,PAYLOAD,2024-06-08 11:59:08,15.08844406,0.0001543,53.2163,273.7183,90.9395,269.1774,0.00022293,3.262e-05,0.0,0 STARLINK-4781,1 53861U 22114AV  24160.49940054  .00003262  00000-0  22293-3 0  9995,2 53861  53.2163 273.7183 0001543  90.9395 269.1774 15.08844406 96612,6917.867,95.437,540.799,538.664,0.0
53861.0,STARLINK-4781,PAYLOAD,2024-06-09 00:42:12,15.08865777,0.0001464,53.2165,271.3363,78.2136,281.9021,0.00058374,9.021e-05,0.0,0 STARLINK-4781,1 53861U 22114AV  24161.02931062  .00009021  00000-0  58374-3 0  9992,2 53861  53.2165 271.3363 0001464  78.2136 281.9021 15.08865777 96152,6917.802,95.436,540.679,538.654,0.0
